GLOBALSTAR M068 [-]     
1 32266U 07048D   23280.75951624 -.00000072  00000+0  17534-3 0  9994
2 32266  51.9910  27.3360 0000875 168.4782 312.9516 12.62767349739422
GLOBALSTAR M079 [+]     
1 37188U 10054A   23280.61578074 -.00000084  00000+0  10991-3 0  9995
2 37188  52.0030 222.8171 0000723  54.3653 116.9152 12.62268469598339
GLOBALSTAR M074 [+]     
1 37189U 10054B   23280.24019683 -.00000075  00000+0  16137-3 0  9999
2 37189  52.0005 223.3787 0000592  70.0201  74.0032 12.62270396598893
GLOBALSTAR M076 [+]     
1 37190U 10054C   23280.87597056 -.00000080  00000+0  13256-3 0  9990
2 37190  52.0021 221.5578 0001141  73.6206 320.9697 12.62261900598695
GLOBALSTAR M077 [+]     
1 37191U 10054D   23280.87212032 -.00000088  00000+0  86925-4 0  9991
2 37191  52.0064 178.2503 0000732  79.5259 356.2406 12.62267064599066
GLOBALSTAR M075 [+]     
1 37192U 10054E   23280.88289394 -.00000075  00000+0  16313-3 0  9997
2 37192  51.9934 264.1394 0000575  53.0661 312.3184 12.62261998597922
GLOBALSTAR M073 [+]     
1 37193U 10054F   23280.89908461 -.00000087  00000+0  94602-4 0  9993
2 37193  52.0048 177.4370 0000800  71.8096   7.5989 12.62268192599754
GLOBALSTAR M083 [+]     
1 37739U 11033A   23280.91824852 -.00000075  00000+0  15783-3 0  9990
2 37739  51.9837 126.9525 0000622  72.3383  35.5549 12.62270010569136
GLOBALSTAR M088 [+]     
1 37740U 11033B   23280.74609072 -.00000093  00000+0  59519-4 0  9994
2 37740  51.9756  33.4879 0000530  78.7554  85.7417 12.62265970564292
GLOBALSTAR M091 [+]     
1 37741U 11033C   23280.50918964 -.00000080  00000+0  13074-3 0  9993
2 37741  52.0025 356.6612 0000393  64.4298  42.3216 12.62266839565318
GLOBALSTAR M085 [+]     
1 37742U 11033D   23280.82665802 -.00000082  00000+0  12234-3 0  9998
2 37742  51.9869 307.2813 0000328  49.8509 121.0250 12.62263454565603
GLOBALSTAR M081 [+]     
1 37743U 11033E   23280.85320970 -.00000069  00000+0  19539-3 0  9996
2 37743  51.9961 309.6061 0000541  49.1352 122.3019 12.62265166566132
GLOBALSTAR M089 [+]     
1 37744U 11033F   23280.93823032 -.00000060  00000+0  24210-3 0  9996
2 37744  51.9915 263.6900 0000676  81.7011 295.9206 12.62267985566615
GLOBALSTAR M084 [+]     
1 38040U 11080A   23280.89223972 -.00000093  00000+0  61575-4 0  9992
2 38040  51.9988 130.7908 0001061  93.3256  14.4659 12.62266670544584
GLOBALSTAR M080 [+]     
1 38041U 11080B   23280.84503611 -.00000091  00000+0  73685-4 0  9992
2 38041  52.0038 132.3236 0001247  87.0284 286.4698 12.62265230544701
GLOBALSTAR M082 [+]     
1 38042U 11080C   23280.89125529 -.00000098  00000+0  33012-4 0  9993
2 38042  52.0066  87.5602 0000216  85.3138  79.0426 12.62271482545415
GLOBALSTAR M092 [+]     
1 38043U 11080D   23280.92565194 -.00000095  00000+0  47470-4 0  9994
2 38043  52.0074 177.8010 0000878  96.7829 344.3065 12.62272679543872
GLOBALSTAR M090 [+]     
1 38044U 11080E   23280.72591321 -.00000099  00000+0  28461-4 0  9997
2 38044  51.9877  82.6683 0000596  78.0544 295.1015 12.62278111545513
GLOBALSTAR M086 [+]     
1 38045U 11080F   23280.94519209 -.00000092  00000+0  67944-4 0  9999
2 38045  51.9889  82.5036 0001507  57.4285 112.5909 12.62263134545483
GLOBALSTAR M097 [+]     
1 39072U 13005A   23280.61775456 -.00000088  00000+0  86476-4 0  9997
2 39072  52.0073 357.4236 0000409  61.6497 298.4411 12.62270826492691
GLOBALSTAR M093 [+]     
1 39073U 13005B   23280.90793596 -.00000084  00000+0  11105-3 0  9997
2 39073  51.9835 350.8328 0000503  38.1800 321.9102 12.62267221492680
GLOBALSTAR M094 [+]     
1 39074U 13005C   23280.90799233 -.00000079  00000+0  13972-3 0  9990
2 39074  51.9945 264.5964 0000542  47.6833 312.4080 12.62268273494291
GLOBALSTAR M096 [+]     
1 39075U 13005D   23280.84190483 -.00000075  00000+0  15847-3 0  9995
2 39075  52.0078 312.8300 0000419  45.4850 314.6051 12.62264606493208
GLOBALSTAR M078 [+]     
1 39076U 13005E   23280.73608890 -.00000097  00000+0  37356-4 0  9994
2 39076  51.9893  38.4966 0000529 213.1323 146.9511 12.62261603491818
GLOBALSTAR M095 [+]     
1 39077U 13005F   23280.68368230 -.00000088  00000+0  88280-4 0  9992
2 39077  51.9819  36.1628 0000063  16.6799 343.4070 12.62269193491662
GLOBALSTAR M087 [+]     
1 52888U 22064A   23280.64712082 -.00000072  00000+0  10707-3 0  9997
2 52888  51.9780  12.4488 0010060  82.5147 277.6897 13.37554161 63599
